NORAD_CAT_ID,OBJECT_NAME,OBJECT_TYPE,EPOCH,MEAN_MOTION,ECCENTRICITY,INCLINATION,RA_OF_ASC_NODE,ARG_OF_PERICENTER,MEAN_ANOMALY,BSTAR,MEAN_MOTION_DOT,MEAN_MOTION_DDOT,TLE_LINE0,TLE_LINE1,TLE_LINE2,SEMIMAJOR_AXIS,PERIOD,APOGEE,PERIGEE,DECAYED
56478.0,STARLINK-6041,PAYLOAD,2024-02-10 20:37:03,14.9832668,0.0002607,69.9993,235.2127,269.3165,90.7695,-1.5561e-05,-2.79e-06,0.0,0 STARLINK-6041,1 56478U 23064AG  24041.85906901 -.00000279  00000-0 -15561-4 0  9996,2 56478  69.9993 235.2127 0002607 269.3165  90.7695 14.98326680 42588,6950.203,96.107,573.88,570.256,0.0
56478.0,STARLINK-6041,PAYLOAD,2024-02-10 22:13:11,14.98326831,0.0002602,69.9993,235.0444,269.09,90.9961,-1.3816e-05,-2.58e-06,0.0,0 STARLINK-6041,1 56478U 23064AG  24041.92582895 -.00000258  00000-0 -13816-4 0  9994,2 56478  69.9993 235.0444 0002602 269.0900  90.9961 14.98326831 42235,6950.203,96.107,573.876,570.259,0.0
56478.0,STARLINK-6041,PAYLOAD,2024-02-11 14:14:31,14.98331971,0.0002616,69.9995,233.3614,266.9839,93.102,-5.7126e-06,-1.61e-06,0.0,0 STARLINK-6041,1 56478U 23064AG  24042.59342513 -.00000161  00000-0 -57126-5 0  9995,2 56478  69.9995 233.3614 0002616 266.9839  93.1020 14.98331971 42332,6950.187,96.107,573.87,570.234,0.0
56478.0,STARLINK-6041,PAYLOAD,2024-02-11 19:02:56,14.98332443,0.00026,69.9997,232.8568,266.6475,93.4387,1.4624e-06,-7.5e-07,0.0,0 STARLINK-6041,1 56478U 23064AG  24042.79370433 -.00000075  00000-0  14624-5 0  9998,2 56478  69.9997 232.8568 0002600 266.6475  93.4387 14.98332443 42729,6950.185,96.107,573.857,570.243,0.0
56478.0,STARLINK-6041,PAYLOAD,2024-02-11 22:15:12,14.98332894,0.0002641,69.9995,232.5198,268.8182,91.2674,5.2163e-06,-3.1e-07,0.0,0 STARLINK-6041,1 56478U 23064AG  24042.92722374 -.00000031  00000-0  52163-5 0  9990,2 56478  69.9995 232.5198 0002641 268.8182  91.2674 14.98332894 42384,6950.184,96.107,573.884,570.213,0.0
56478.0,STARLINK-6041,PAYLOAD,2024-02-12 14:16:32,14.98328482,0.0002696,69.9995,230.837,269.4784,90.6066,9.4039e-06,1.9e-07,0.0,0 STARLINK-6041,1 56478U 23064AG  24043.59482577  .00000019  00000-0  94039-5 0  9995,2 56478  69.9995 230.8370 0002696 269.4784  90.6066 14.98328482 42489,6950.198,96.107,573.936,570.189,0.0
56478.0,STARLINK-6041,PAYLOAD,2024-02-12 19:04:57,14.98328711,0.00027,69.9995,230.332,269.4537,90.6313,1.1232e-05,4.1e-07,0.0,0 STARLINK-6041,1 56478U 23064AG  24043.79510566  .00000041  00000-0  11232-4 0  9995,2 56478  69.9995 230.3320 0002700 269.4537  90.6313 14.98328711 42874,6950.197,96.107,573.938,570.185,0.0
56478.0,STARLINK-6041,PAYLOAD,2024-02-12 22:17:13,14.98329069,0.0002699,69.9995,229.9953,269.6874,90.3976,1.4366e-05,7.8e-07,0.0,0 STARLINK-6041,1 56478U 23064AG  24043.92862531  .00000078  00000-0  14366-4 0  9993,2 56478  69.9995 229.9953 0002699 269.6874  90.3976 14.98329069 42535,6950.196,96.107,573.937,570.185,0.0
56478.0,STARLINK-6041,PAYLOAD,2024-02-13 14:18:34,14.98327922,0.0002678,69.9995,228.312,269.9108,90.1744,-5.45e-05,-7.43e-06,0.0,0 STARLINK-6041,1 56478U 23064AG  24044.59622853 -.00000743  00000-0 -54500-4 0  9993,2 56478  69.9995 228.3120 0002678 269.9108  90.1744 14.98327922 42632,6950.199,96.107,573.926,570.203,0.0
56478.0,STARLINK-6041,PAYLOAD,2024-02-13 19:06:58,14.98327862,0.0002695,69.9996,227.8073,270.4021,89.6829,-5.3107e-05,-7.27e-06,0.0,0 STARLINK-6041,1 56478U 23064AG  24044.79650876 -.00000727  00000-0 -53107-4 0  9995,2 56478  69.9996 227.8073 0002695 270.4021  89.6829 14.98327862 43028,6950.2,96.107,573.938,570.191,0.0
56478.0,STARLINK-6041,PAYLOAD,2024-02-13 22:19:14,14.98327882,0.0002696,69.9995,227.4705,270.931,89.154,-5.1791e-05,-7.11e-06,0.0,0 STARLINK-6041,1 56478U 23064AG  24044.93002891 -.00000711  00000-0 -51791-4 0  9999,2 56478  69.9995 227.4705 0002696 270.9310  89.1540 14.98327882 42680,6950.199,96.107,573.938,570.191,0.0
56478.0,STARLINK-6041,PAYLOAD,2024-02-14 14:20:34,14.98332448,0.0002802,69.9992,225.7869,272.703,87.3809,3.8223e-05,3.63e-06,0.0,0 STARLINK-6041,1 56478U 23064AG  24045.59762304  .00000363  00000-0  38223-4 0  9990,2 56478  69.9992 225.7869 0002802 272.7030  87.3809 14.98332448 42780,6950.185,96.107,573.998,570.103,0.0
56478.0,STARLINK-6041,PAYLOAD,2024-02-14 17:32:50,14.98332941,0.0002787,69.9993,225.4504,272.8064,87.2776,4.4499e-05,4.38e-06,0.0,0 STARLINK-6041,1 56478U 23064AG  24045.73114238  .00000438  00000-0  44499-4 0  9998,2 56478  69.9993 225.4504 0002787 272.8064  87.2776 14.98332941 43167,6950.184,96.107,573.986,570.112,0.0
56478.0,STARLINK-6041,PAYLOAD,2024-02-14 20:45:06,14.98333905,0.0002776,69.9993,225.1137,272.931,87.1531,5.4388e-05,5.56e-06,0.0,0 STARLINK-6041,1 56478U 23064AG  24045.86466122  .00000556  00000-0  54388-4 0  9993,2 56478  69.9993 225.1137 0002776 272.9310  87.1531 14.98333905 42820,6950.181,96.107,573.975,570.116,0.0
56478.0,STARLINK-6041,PAYLOAD,2024-02-15 14:22:35,14.9832749,0.0002763,69.9994,223.2624,271.6115,88.4727,2.5673e-05,2.13e-06,0.0,0 STARLINK-6041,1 56478U 23064AG  24046.59902529  .00000213  00000-0  25673-4 0  9995,2 56478  69.9994 223.2624 0002763 271.6115  88.4727 14.98327490 42931,6950.201,96.107,573.986,570.145,0.0
56478.0,STARLINK-6041,PAYLOAD,2024-02-15 19:10:59,14.98327897,0.0002764,69.9995,222.7574,271.8233,88.2609,2.7511e-05,2.35e-06,0.0,0 STARLINK-6041,1 56478U 23064AG  24046.79930514  .00000235  00000-0  27511-4 0  9999,2 56478  69.9995 222.7574 0002764 271.8233  88.2609 14.98327897 43326,6950.199,96.107,573.985,570.143,0.0
56478.0,STARLINK-6041,PAYLOAD,2024-02-15 22:23:16,14.98329057,0.0002763,69.9995,222.4208,271.9064,88.1778,3.7502e-05,3.55e-06,0.0,0 STARLINK-6041,1 56478U 23064AG  24046.93282418  .00000355  00000-0  37502-4 0  9992,2 56478  69.9995 222.4208 0002763 271.9064  88.1778 14.98329057 42986,6950.196,96.107,573.981,570.14,0.0
56478.0,STARLINK-6041,PAYLOAD,2024-02-16 14:24:36,14.98333971,0.0002738,69.9995,220.7372,270.6293,89.4552,-1.9095e-05,-3.21e-06,0.0,0 STARLINK-6041,1 56478U 23064AG  24047.60042187 -.00000321  00000-0 -19095-4 0  9996,2 56478  69.9995 220.7372 0002738 270.6293  89.4552 14.98333971 43087,6950.181,96.107,573.949,570.143,0.0
56478.0,STARLINK-6041,PAYLOAD,2024-02-16 19:13:00,14.98333268,0.0002751,69.9996,220.2322,270.6735,89.4109,-2.4918e-05,-3.9e-06,0.0,0 STARLINK-6041,1 56478U 23064AG  24047.80070200 -.00000390  00000-0 -24918-4 0  9991,2 56478  69.9996 220.2322 0002751 270.6735  89.4109 14.98333268 43474,6950.183,96.107,573.96,570.136,0.0
56478.0,STARLINK-6041,PAYLOAD,2024-02-16 20:49:08,14.98333362,0.0002765,69.9995,220.0639,270.9903,89.0939,-2.4152e-05,-3.81e-06,0.0,0 STARLINK-6041,1 56478U 23064AG  24047.86746177 -.00000381  00000-0 -24152-4 0  9990,2 56478  69.9995 220.0639 0002765 270.9903  89.0939 14.98333362 43121,6950.182,96.107,573.969,570.126,0.0
56478.0,STARLINK-6041,PAYLOAD,2024-02-17 14:26:37,14.98326759,0.0002806,69.9995,218.2121,270.8182,89.2655,-7.3318e-06,-1.8e-06,0.0,0 STARLINK-6041,1 56478U 23064AG  24048.60182511 -.00000180  00000-0 -73318-5 0  9995,2 56478  69.9995 218.2121 0002806 270.8182  89.2655 14.98326759 43231,6950.203,96.107,574.018,570.118,0.0
56478.0,STARLINK-6041,PAYLOAD,2024-02-17 19:15:01,14.98328468,0.0002831,69.9995,217.7069,270.227,89.8564,-7.7806e-06,-1.86e-06,0.0,0 STARLINK-6041,1 56478U 23064AG  24048.80210412 -.00000186  00000-0 -77806-5 0  9991,2 56478  69.9995 217.7069 0002831 270.2270  89.8564 14.98328468 43623,6950.198,96.107,574.03,570.095,0.0
56478.0,STARLINK-6041,PAYLOAD,2024-02-17 20:51:09,14.98327629,0.0002839,69.9995,217.5385,270.1392,89.9442,-1.6838e-05,-2.94e-06,0.0,0 STARLINK-6041,1 56478U 23064AG  24048.86886494 -.00000294  00000-0 -16838-4 0  9993,2 56478  69.9995 217.5385 0002839 270.1392  89.9442 14.98327629 43279,6950.2,96.107,574.038,570.092,0.0
56478.0,STARLINK-6041,PAYLOAD,2024-02-18 14:28:38,14.98332816,0.0002897,69.9994,215.6867,270.2982,89.7845,4.425e-05,4.35e-06,0.0,0 STARLINK-6041,1 56478U 23064AG  24049.60321925  .00000435  00000-0  44250-4 0  9993,2 56478  69.9994 215.6867 0002897 270.2982  89.7845 14.98332816 43383,6950.184,96.107,574.063,570.036,0.0
56478.0,STARLINK-6041,PAYLOAD,2024-02-18 19:17:02,14.98336202,0.0002894,69.9994,215.182,270.8521,89.2306,4.8266e-05,4.83e-06,0.0,0 STARLINK-6041,1 56478U 23064AG  24049.80349649  .00000483  00000-0  48266-4 0  9992,2 56478  69.9994 215.1820 0002894 270.8521  89.2306 14.98336202 43772,6950.174,96.107,574.05,570.027,0.0
56478.0,STARLINK-6041,PAYLOAD,2024-02-18 20:53:10,14.98336626,0.0002893,69.9995,215.0137,270.8936,89.1892,5.2224e-05,5.3e-06,0.0,0 STARLINK-6041,1 56478U 23064AG  24049.87025586  .00000530  00000-0  52224-4 0  9992,2 56478  69.9995 215.0137 0002893 270.8936  89.1892 14.98336626 43423,6950.172,96.107,574.048,570.027,0.0
56478.0,STARLINK-6041,PAYLOAD,2024-02-19 14:30:39,14.98327107,0.0002902,69.9995,213.1623,270.808,89.2747,5.4371e-06,-2.8e-07,0.0,0 STARLINK-6041,1 56478U 23064AG  24050.60462232 -.00000028  00000-0  54371-5 0  9997,2 56478  69.9995 213.1623 0002902 270.8080  89.2747 14.98327107 43539,6950.202,96.107,574.084,570.05,0.0
56478.0,STARLINK-6041,PAYLOAD,2024-02-19 19:19:03,14.98328799,0.0002945,69.9996,212.6574,271.1277,88.9545,-1.9798e-06,-1.17e-06,0.0,0 STARLINK-6041,1 56478U 23064AG  24050.80490153 -.00000117  00000-0 -19798-5 0  9996,2 56478  69.9996 212.6574 0002945 271.1277  88.9545 14.98328799 43921,6950.197,96.107,574.108,570.015,0.0
56478.0,STARLINK-6041,PAYLOAD,2024-02-19 20:55:11,14.98329701,0.0002941,69.9997,212.4891,271.1101,88.9721,7.5525e-06,-3e-08,0.0,0 STARLINK-6041,1 56478U 23064AG  24050.87166065 -.00000003  00000-0  75525-5 0  9998,2 56478  69.9997 212.4891 0002941 271.1101  88.9721 14.98329701 43575,6950.194,96.107,574.103,570.015,0.0
56478.0,STARLINK-6041,PAYLOAD,2024-02-20 14:32:40,14.98329528,0.0002846,70.0001,210.6376,271.8925,88.1908,-6.7801e-05,-9.02e-06,0.0,0 STARLINK-6041,1 56478U 23064AG  24051.60602316 -.00000902  00000-0 -67801-4 0  9990,2 56478  70.0001 210.6376 0002846 271.8925  88.1908 14.98329528 43685,6950.194,96.107,574.037,570.081,0.0
